[{"OBJECT_NAME":"STARLINK-4146","OBJECT_ID":"2022-086BE","EPOCH":"2026-03-09T21:40:02.523072","MEAN_MOTION":15.08843673,"ECCENTRICITY":0.0001,"INCLINATION":53.2181,"RA_OF_ASC_NODE":172.9999,"ARG_OF_PERICENTER":93.8211,"MEAN_ANOMALY":266.2896,"EPHEMERIS_TYPE":0,"CLASSIFICATION_TYPE":"U","NORAD_CAT_ID":53294,"ELEMENT_SET_NO":999,"REV_AT_EPOCH":20140,"BSTAR":-5.4891792e-5,"MEAN_MOTION_DOT":-1.161e-5,"MEAN_MOTION_DDOT":0},{"OBJECT_NAME":"POSAT-2","OBJECT_ID":"2025-009DR","EPOCH":"2026-03-09T23:15:20.314368","MEAN_MOTION":15.10404492,"ECCENTRICITY":0.00077103,"INCLINATION":97.4906,"RA_OF_ASC_NODE":146.0095,"ARG_OF_PERICENTER":126.4226,"MEAN_ANOMALY":233.7715,"EPHEMERIS_TYPE":0,"CLASSIFICATION_TYPE":"U","NORAD_CAT_ID":63488,"ELEMENT_SET_NO":999,"REV_AT_EPOCH":5165,"BSTAR":0.0010942248,"MEAN_MOTION_DOT":0.00017957,"MEAN_MOTION_DDOT":0}]
